NORAD_CAT_ID,OBJECT_NAME,OBJECT_TYPE,EPOCH,MEAN_MOTION,ECCENTRICITY,INCLINATION,RA_OF_ASC_NODE,ARG_OF_PERICENTER,MEAN_ANOMALY,BSTAR,MEAN_MOTION_DOT,MEAN_MOTION_DDOT,TLE_LINE0,TLE_LINE1,TLE_LINE2,SEMIMAJOR_AXIS,PERIOD,APOGEE,PERIGEE,DECAYED
55754.0,STARLINK-5612,PAYLOAD,2023-09-16 13:36:37,14.98325801,0.0003117,70.0011,6.513,268.1272,91.953,-0.00010212,-1.311e-05,0.0,0 STARLINK-5612,1 55754U 23028P   23259.56709585 -.00001311  00000-0 -10212-3 0  9994,2 55754  70.0011   6.5130 0003117 268.1272  91.9530 14.98325801 30463,6950.206,96.107,574.237,569.904,0.0
55754.0,STARLINK-5612,PAYLOAD,2023-09-17 10:26:21,14.98321622,0.0003038,70.0008,4.3235,272.0158,88.0653,0.00017962,2.05e-05,0.0,0 STARLINK-5612,1 55754U 23028P   23260.43497316  .00002050  00000-0  17962-3 0  9996,2 55754  70.0008   4.3235 0003038 272.0158  88.0653 14.98321622 30594,6950.219,96.108,574.195,569.972,0.0
55754.0,STARLINK-5612,PAYLOAD,2023-09-17 13:38:37,14.98321176,0.000305,70.0006,3.9867,271.874,88.207,0.00016824,1.915e-05,0.0,0 STARLINK-5612,1 55754U 23028P   23260.56849448  .00001915  00000-0  16824-3 0  9992,2 55754  70.0006   3.9867 0003050 271.8740  88.2070 14.98321176 30618,6950.22,96.108,574.205,569.965,0.0
55754.0,STARLINK-5612,PAYLOAD,2023-09-18 10:28:23,14.98323508,0.0002738,70.0016,1.7991,269.303,90.7816,5.3531e-05,5.46e-06,0.0,0 STARLINK-5612,1 55754U 23028P   23261.43637776  .00000546  00000-0  53531-4 0  9994,2 55754  70.0016   1.7991 0002738 269.3030  90.7816 14.98323508 30740,6950.213,96.107,573.981,570.175,0.0
55754.0,STARLINK-5612,PAYLOAD,2023-09-18 13:40:38,14.98329533,0.0002845,70.0006,1.4616,267.5669,92.5164,2.2125e-05,1.71e-06,0.0,0 STARLINK-5612,1 55754U 23028P   23261.56989485  .00000171  00000-0  22125-4 0  9994,2 55754  70.0006   1.4616 0002845 267.5669  92.5164 14.98329533 30769,6950.194,96.107,574.037,570.082,0.0
55754.0,STARLINK-5612,PAYLOAD,2023-09-18 16:52:54,14.98331397,0.0002803,70.0011,1.1253,269.4492,90.6346,9.1342e-05,9.97e-06,0.0,0 STARLINK-5612,1 55754U 23028P   23261.70341197  .00000997  00000-0  91342-4 0  9995,2 55754  70.0011   1.1253 0002803 269.4492  90.6346 14.98331397 30782,6950.189,96.107,574.002,570.105,0.0
55754.0,STARLINK-5612,PAYLOAD,2023-09-19 16:54:54,14.98345588,0.0002792,70.0009,358.6005,274.4707,85.6133,0.00013899,1.566e-05,0.0,0 STARLINK-5612,1 55754U 23028P   23262.70479719  .00001566  00000-0  13899-3 0  9991,2 55754  70.0009 358.6005 0002792 274.4707  85.6133 14.98345588 30938,6950.145,96.106,573.95,570.069,0.0
55754.0,STARLINK-5612,PAYLOAD,2023-09-20 08:56:17,14.98319235,0.0002999,70.0006,356.9175,267.8229,92.2587,-0.00013355,-1.686e-05,0.0,0 STARLINK-5612,1 55754U 23028P   23263.37242072 -.00001686  00000-0 -13355-3 0  9997,2 55754  70.0006 356.9175 0002999 267.8229  92.2587 14.98319235 31037,6950.226,96.108,574.176,570.007,0.0
55754.0,STARLINK-5612,PAYLOAD,2023-09-20 13:44:41,14.98316202,0.0002612,70.0019,356.4153,242.6159,117.4734,-0.00013049,-1.649e-05,0.0,0 STARLINK-5612,1 55754U 23028P   23263.57270295 -.00001649  00000-0 -13049-3 0  9996,2 55754  70.0019 356.4153 0002612 242.6159 117.4734 14.98316202 31065,6950.236,96.108,573.916,570.285,0.0
55754.0,STARLINK-5612,PAYLOAD,2023-09-20 15:20:49,14.98314389,0.0002597,70.0021,356.2474,240.4554,119.6346,-0.00014163,-1.782e-05,0.0,0 STARLINK-5612,1 55754U 23028P   23263.63946477 -.00001782  00000-0 -14163-3 0  9991,2 55754  70.0021 356.2474 0002597 240.4554 119.6346 14.98314389 31077,6950.241,96.108,573.911,570.301,0.0
55754.0,STARLINK-5612,PAYLOAD,2023-09-21 10:34:25,14.98334923,0.0003282,69.9995,354.2237,274.2903,85.7881,-4.262e-05,-6.02e-06,0.0,0 STARLINK-5612,1 55754U 23028P   23264.44057077 -.00000602  00000-0 -42620-4 0  9990,2 55754  69.9995 354.2237 0003282 274.2903  85.7881 14.98334923 31190,6950.178,96.107,574.324,569.762,0.0
55754.0,STARLINK-5612,PAYLOAD,2023-09-21 12:10:33,14.98334249,0.0002617,70.0009,354.0561,262.3319,97.7543,-4.3923e-05,-6.17e-06,0.0,0 STARLINK-5612,1 55754U 23028P   23264.50733027 -.00000617  00000-0 -43923-4 0  9996,2 55754  70.0009 354.0561 0002617 262.3319  97.7543 14.98334249 31208,6950.18,96.107,573.864,570.226,0.0
55754.0,STARLINK-5612,PAYLOAD,2023-09-21 15:22:48,14.98341105,0.0002878,69.9999,353.7194,268.2125,91.8704,4.2055e-05,4.09e-06,0.0,0 STARLINK-5612,1 55754U 23028P   23264.64084352  .00000409  00000-0  42055-4 0  9993,2 55754  69.9999 353.7194 0002878 268.2125  91.8704 14.98341105 31225,6950.159,96.106,574.024,570.023,0.0
55754.0,STARLINK-5612,PAYLOAD,2023-09-21 18:35:04,14.98345786,0.0003071,69.9996,353.3824,271.823,88.2577,7.058e-05,7.5e-06,0.0,0 STARLINK-5612,1 55754U 23028P   23264.77435887  .00000750  00000-0  70580-4 0  9993,2 55754  69.9996 353.3824 0003071 271.8230  88.2577 14.98345786 31240,6950.144,96.106,574.143,569.875,0.0
55754.0,STARLINK-5612,PAYLOAD,2023-09-21 23:23:30,14.98329221,0.0003133,70.0013,352.877,280.0159,80.0646,-0.00020682,-2.56e-05,0.0,0 STARLINK-5612,1 55754U 23028P   23264.97465511 -.00002560  00000-0 -20682-3 0  9992,2 55754  70.0013 352.8770 0003133 280.0159  80.0646 14.98329221 31274,6950.195,96.107,574.238,569.883,0.0
55754.0,STARLINK-5612,PAYLOAD,2023-09-22 13:48:42,14.98324913,0.0003184,69.9999,351.3625,272.9604,87.1191,0.00013575,1.527e-05,0.0,0 STARLINK-5612,1 55754U 23028P   23265.57549259  .00001527  00000-0  13575-3 0  9994,2 55754  69.9999 351.3625 0003184 272.9604  87.1191 14.98324913 31364,6950.209,96.107,574.287,569.861,0.0
55754.0,STARLINK-5612,PAYLOAD,2023-09-22 17:00:58,14.98328686,0.0003146,70.0001,351.0262,272.3051,87.7748,0.00017614,2.009e-05,0.0,0 STARLINK-5612,1 55754U 23028P   23265.70900931  .00002009  00000-0  17614-3 0  9991,2 55754  70.0001 351.0262 0003146 272.3051  87.7748 14.98328686 31380,6950.197,96.107,574.248,569.875,0.0
55754.0,STARLINK-5612,PAYLOAD,2023-09-22 23:25:31,14.98321856,0.000245,70.0022,350.3522,279.6584,80.4298,9.8054e-05,1.077e-05,0.0,0 STARLINK-5612,1 55754U 23028P   23265.97605895  .00001077  00000-0  98054-4 0  9993,2 55754  70.0022 350.3522 0002450 279.6584  80.4298 14.98321856 31429,6950.218,96.108,573.786,570.38,0.0
55754.0,STARLINK-5612,PAYLOAD,2023-09-23 12:14:35,14.98335241,0.0003155,70.0001,349.0054,275.9134,84.1665,6.3496e-06,-1.7e-07,0.0,0 STARLINK-5612,1 55754U 23028P   23266.51012912 -.00000017  00000-0  63496-5 0  9993,2 55754  70.0001 349.0054 0003155 275.9134  84.1665 14.98335241 31505,6950.177,96.107,574.234,569.849,0.0
55754.0,STARLINK-5612,PAYLOAD,2023-09-23 13:50:43,14.98335282,0.0003133,70.0001,348.8371,275.3707,84.7095,5.8526e-06,-2.3e-07,0.0,0 STARLINK-5612,1 55754U 23028P   23266.57688887 -.00000023  00000-0  58526-5 0  9994,2 55754  70.0001 348.8371 0003133 275.3707  84.7095 14.98335282 31519,6950.177,96.107,574.219,569.864,0.0
55754.0,STARLINK-5612,PAYLOAD,2023-09-24 10:40:28,14.98325412,0.0003072,70.0006,346.6491,274.5848,85.496,-3.4682e-06,-1.34e-06,0.0,0 STARLINK-5612,1 55754U 23028P   23267.44477420 -.00000134  00000-0 -34682-5 0  9991,2 55754  70.0006 346.6491 0003072 274.5848  85.4960 14.98325412 31649,6950.207,96.107,574.207,569.937,0.0
55754.0,STARLINK-5612,PAYLOAD,2023-09-24 13:52:44,14.9832996,0.0002778,70.0009,346.3149,258.4157,101.669,-3.6893e-06,-1.37e-06,0.0,0 STARLINK-5612,1 55754U 23028P   23267.57829046 -.00000137  00000-0 -36893-5 0  9999,2 55754  70.0009 346.3149 0002778 258.4157 101.6690 14.98329960 31660,6950.193,96.107,573.989,570.127,0.0
55754.0,STARLINK-5612,PAYLOAD,2023-09-24 15:28:52,14.9833081,0.0002793,70.0009,346.1464,259.3781,100.7064,4.9034e-06,-3.4e-07,0.0,0 STARLINK-5612,1 55754U 23028P   23267.64504968 -.00000034  00000-0  49034-5 0  9996,2 55754  70.0009 346.1464 0002793 259.3781 100.7064 14.98330810 31670,6950.19,96.107,573.997,570.114,0.0
55754.0,STARLINK-5612,PAYLOAD,2023-09-25 09:06:22,14.98257785,0.0003254,70.0009,344.2944,257.2565,102.823,0.0012957,0.00015372,0.0,0 STARLINK-5612,1 55754U 23028P   23268.37942374  .00015372  00000-0  12957-2 0  9995,2 55754  70.0009 344.2944 0003254 257.2565 102.8230 14.98257785 31781,6950.416,96.112,574.543,570.02,0.0
55754.0,STARLINK-5612,PAYLOAD,2023-09-25 12:18:36,14.98338129,0.0002929,70.0007,343.9581,263.9639,96.1186,3.2387e-05,2.94e-06,0.0,0 STARLINK-5612,1 55754U 23028P   23268.51292285  .00000294  00000-0  32387-4 0  9998,2 55754  70.0007 343.9581 0002929 263.9639  96.1186 14.98338129 31806,6950.168,96.106,574.068,569.997,0.0
55754.0,STARLINK-5612,PAYLOAD,2023-09-25 15:30:52,14.98339202,0.0002917,70.0008,343.6213,265.3879,94.6947,3.7403e-05,3.53e-06,0.0,0 STARLINK-5612,1 55754U 23028P   23268.64644142  .00000353  00000-0  37403-4 0  9995,2 55754  70.0008 343.6213 0002917 265.3879  94.6947 14.98339202 31828,6950.164,96.106,574.057,570.002,0.0
55754.0,STARLINK-5612,PAYLOAD,2023-09-26 10:44:30,14.98319598,0.0002873,70.0,341.5999,266.2391,93.844,-8.8929e-05,-1.154e-05,0.0,0 STARLINK-5612,1 55754U 23028P   23269.44757946 -.00001154  00000-0 -88929-4 0  9992,2 55754  70.0000 341.5999 0002873 266.2391  93.8440 14.98319598 31946,6950.225,96.108,574.087,570.093,0.0
55754.0,STARLINK-5612,PAYLOAD,2023-09-26 13:56:46,14.98320192,0.0002835,70.0001,341.263,262.5162,97.5675,-8.0168e-05,-1.049e-05,0.0,0 STARLINK-5612,1 55754U 23028P   23269.58109892 -.00001049  00000-0 -80168-4 0  9998,2 55754  70.0001 341.2630 0002835 262.5162  97.5675 14.98320192 31964,6950.223,96.108,574.059,570.118,0.0
55754.0,STARLINK-5612,PAYLOAD,2023-09-27 09:10:22,14.98338723,0.0003196,69.9989,339.2419,268.0449,92.0344,-8.887e-06,-1.99e-06,0.0,0 STARLINK-5612,1 55754U 23028P   23270.38220561 -.00000199  00000-0 -88870-5 0  9999,2 55754  69.9989 339.2419 0003196 268.0449  92.0344 14.98338723 32084,6950.166,96.106,574.252,569.81,0.0
55754.0,STARLINK-5612,PAYLOAD,2023-09-27 12:22:38,14.98342179,0.000311,69.9991,338.9054,266.8842,93.1961,4.2455e-05,4.14e-06,0.0,0 STARLINK-5612,1 55754U 23028P   23270.51572108  .00000414  00000-0  42455-4 0  9997,2 55754  69.9991 338.9054 0003110 266.8842  93.1961 14.98342179 32107,6950.155,96.106,574.182,569.859,0.0
